FENGYUN 2D              
1 29640U 06053A   16055.34109509 -.00000377  00000-0  10000-3 0  9995
2 29640   3.5662  66.8861 0000740 139.5606 193.1468  1.00285664 33797
WILDBLUE-1              
1 29643U 06054A   16055.17118884 -.00000069  00000-0  00000+0 0  9999
2 29643   0.0157 191.1108 0001973 150.1861 122.6119  1.00272820 33787
AMC-18                  
1 29644U 06054B   16054.37354876 -.00000111  00000-0  00000+0 0  9992
2 29644   0.0120 316.2942 0002649   5.7833 220.1097  1.00271072 33786
MEASAT-3                
1 29648U 06056A   16054.83939390 -.00000262  00000-0  00000+0 0  9996
2 29648   0.0262 171.5723 0000777 204.7099 170.5330  1.00270742 33793
KIKU-8 (ETS-VIII)       
1 29656U 06059A   16055.34159778 -.00000258  00000-0  00000+0 0  9994
2 29656   4.6950  62.1169 0006383 290.6531  69.5372  1.00270728 33684
INSAT-4B                
1 30793U 07007A   16054.97475620 -.00000278  00000-0  00000+0 0  9999
2 30793   0.1586  91.0625 0007464 211.8461 294.7591  1.00272824 32818
SKYNET 5A               
1 30794U 07007B   16054.84317465 -.00000291  00000-0  00000+0 0  9993
2 30794   0.0683 349.2953 0003061 347.6226 214.9222  1.00270087 32885
ANIK F3                 
1 31102U 07009A   16055.17099826 -.00000020  00000-0  00000+0 0  9994
2 31102   0.0097 108.8382 0002299 236.3262 111.1379  1.00271920 32573
ASTRA 1L                
1 31306U 07016A   16055.23851280  .00000100  00000-0  00000+0 0  9993
2 31306   0.1054 277.5988 0003480  12.9923 327.9797  1.00272780 32277
GALAXY 17 (G-17)        
1 31307U 07016B   16055.51575303 -.00000193  00000-0  00000+0 0  9997
2 31307   0.0341  59.0527 0003587 285.6717 263.7551  1.00273222 32318
ZHONGXING-6B            
1 31800U 07031A   16054.77397153 -.00000382  00000-0  00000+0 0  9994
2 31800   0.0218 138.9175 0003198 182.4519 225.8930  1.00270347 31704
DIRECTV 10              
1 31862U 07032A   16054.86013675 -.00000122  00000-0  00000+0 0  9999
2 31862   0.0169 265.4892 0000407 195.8838 258.6316  1.00261907 31648
SPACEWAY 3              
1 32018U 07036A   16055.10032346 -.00000171  00000-0  00000+0 0  9995
2 32018   0.0158 317.8646 0000307  31.8218 104.8695  1.00272619 31362
BSAT-3A                 
1 32019U 07036B   16054.27085243 -.00000372  00000-0  00000+0 0  9990
2 32019   0.0800 251.8600 0002578  31.9305  76.1466  1.00272641 31298
INSAT-4CR               
1 32050U 07037A   16055.00504186 -.00000097  00000-0  00000+0 0  9994
2 32050   0.0936 271.1144 0007804  19.0832 298.9028  1.00272365 31088
OPTUS D2                
1 32252U 07044A   16054.57010230 -.00000205  00000-0  00000+0 0  9990
2 32252   0.0675 292.1600 0002987  45.3275 172.6229  1.00270692 30678
INTELSAT 11 (IS-11)     
1 32253U 07044B   16055.20555132 -.00000288  00000-0  00000+0 0  9998
2 32253   0.0491 261.0673 0003122  80.6411 202.7652  1.00270619 30760
STAR ONE C1             
1 32293U 07056A   16053.75805301 -.00000300  00000-0  00000+0 0  9994
2 32293   0.0482 282.5142 0003075  62.7995  14.6420  1.00274047 30333
SKYNET 5B               
1 32294U 07056B   16055.11496442  .00000123  00000-0  00000+0 0  9991
2 32294   0.0676 345.1068 0004090 347.5408 247.2443  1.00281422 30449
ASTRA 4A (SIRIUS 4)     
1 32299U 07057A   16054.79837506  .00000011  00000-0  00000+0 0  9996
2 32299   0.0532 297.4232 0003027  23.1306 124.7448  1.00272227 30199
HORIZONS-2              
1 32388U 07063B   16054.85080623 -.00000202  00000-0  00000+0 0  9992
2 32388   0.0153 134.2903 0003297 208.2397 201.7757  1.00268017 30118
THURAYA-3               
1 32404U 08001A   16054.53046006 -.00000319  00000-0  00000+0 0  9995
2 32404   4.2670 349.2009 0005192 340.8693 112.3480  1.00271084 29767
EXPRESS-AM33            
1 32478U 08003A   16055.04696641 -.00000300  00000-0  00000+0 0  9991
2 32478   0.0266 274.4110 0000690 157.6374 194.6758  1.00270485 29858
THOR 5                  
1 32487U 08006A   16055.11697734 -.00000029  00000-0  00000+0 0  9994
2 32487   0.0476 262.0902 0002636  76.2455 216.4198  1.00272532 29419
KIZUNA (WINDS)          
1 32500U 08007A   16053.76406001 -.00000282  00000-0  00000+0 0  9996
2 32500   0.0794 268.5409 0002674  83.8788 217.7164  1.00271185 29258
AMC-14                  
1 32708U 08011A   16055.23955442  .00000086  00000-0  00000+0 0  9994
2 32708  18.2249  70.3246 0043137 350.5873 197.7273  1.00205471 30334
DIRECTV 11              
1 32729U 08013A   16055.20141477 -.00000145  00000-0  00000+0 0  9998
2 32729   0.0175 311.0205 0000295  77.5387  98.2464  1.00272540 29176
ICO G1                  
1 32763U 08016A   16054.22914894 -.00000189  00000-0  00000+0 0  9999
2 32763   4.0385 349.5988 0003277 349.5675 163.0110  1.00272240 28692
VINASAT-1               
1 32767U 08018A   16054.20980036 -.00000351  00000-0  00000+0 0  9995
2 32767   0.0173 247.8308 0001711 107.7348   4.4328  1.00269315 28839
STAR ONE C2             
1 32768U 08018B   16054.76914729 -.00000286  00000-0  00000+0 0  9990
2 32768   0.0320 195.4084 0001169 144.7188  19.8352  1.00273075 28782
TIANLIAN 1-01           
1 32779U 08019A   16054.91594013 -.00000157  00000-0  10000-3 0  9992
2 32779   1.8356  78.3478 0037920 222.6292 262.0083  1.00273353 28708
AMOS-3                  
1 32794U 08022A   16053.80220259 -.00000058  00000-0  00000-0 0  9994
2 32794   0.0557 273.6287 0002809  67.8098  95.4407  1.00272278 44585
GALAXY 18 (G-18)        
1 32951U 08024A   16054.91584423  .00000005  00000-0  00000+0 0  9990
2 32951   0.0174 152.2435 0002840 189.3459  18.4004  1.00269142 28326
CHINASAT 9 (ZX 9)       
1 33051U 08028A   16055.03966521 -.00000267  00000-0  00000+0 0  9994
2 33051   0.0026 215.3548 0003910 110.3762 294.0730  1.00270553 28247
SKYNET 5C               
1 33055U 08030A   16055.13893609 -.00000160  00000-0  00000+0 0  9990
2 33055   0.0649   1.0802 0003169 322.9138 221.6072  1.00272623 28132
TURKSAT 3A              
1 33056U 08030B   16054.86071909  .00000126  00000-0  00000+0 0  9992
2 33056   0.0342 156.0262 0003337 176.1742 172.7903  1.00271435 28310
INTELSAT 25 (IS-25)     
1 33153U 08034A   16054.29928987 -.00000246  00000-0  00000+0 0  9992
2 33153   0.0617 274.9960 0002563  44.6005 269.2464  1.00274473 27867
BADR-6                  
1 33154U 08034B   16055.11496442  .00000125  00000-0  00000+0 0  9996
2 33154   0.0635  38.6565 0004738 320.1210 221.9888  1.00272123 27999
ECHOSTAR 11             
1 33207U 08035A   16054.87997312 -.00000077  00000-0  00000+0 0  9997
2 33207   0.0130 208.5816 0003371 139.1129  12.2973  1.00269943 27895
SUPERBIRD-C2            
1 33274U 08038A   16055.53404214 -.00000270  00000-0  00000+0 0  9997
2 33274   0.0500 293.1659 0001402  36.3575 160.5025  1.00272011 27627
AMC-21                  
1 33275U 08038B   16055.26867612  .00000017  00000-0  00000+0 0  9991
2 33275   0.0531 298.7331 0002777  42.0834 144.5593  1.00272856 27706
INMARSAT 4-F3           
1 33278U 08039A   16055.37935574 -.00000155  00000-0  00000+0 0  9994
2 33278   3.0192 356.7055 0002777 334.4920 221.0579  1.00272297 27509
NIMIQ 4                 
1 33373U 08044A   16054.42314481 -.00000242  00000-0  00000+0 0  9996
2 33373   0.0123 114.4078 0002352 228.9254 239.7206  1.00272212 27067
GALAXY 19 (G-19)        
1 33376U 08045A   16055.07555726 -.00000159  00000-0  00000+0 0  9998
2 33376   0.0177 112.7776 0002875 226.6213 104.1678  1.00270989 27062
VENESAT-1               
1 33414U 08055A   16055.50334116 -.00000256  00000-0  00000+0 0  9996
2 33414   0.0150  95.1868 0000974 249.9509 271.8482  1.00273228 26799
ASTRA 1M                
1 33436U 08057A   16055.23851280  .00000100  00000-0  00000+0 0  9995
2 33436   0.0424 297.5124 0000896  80.2343 240.8096  1.00272295 26717
CIEL-2                  
1 33453U 08063A   16055.35389954  .00000039  00000-0  00000+0 0  9999
2 33453   0.0492 307.9469 0003062  30.4584 173.7755  1.00273146 26409
EUTELSAT HOT BIRD 13C   
1 33459U 08065A   16054.53935023  .00000065  00000-0  00000+0 0  9999
2 33459   0.0356  14.7421 0004839 343.8061   1.4167  1.00271976 26480
EUTELSAT 48D            
1 33460U 08065B   16055.10929524  .00000104  00000-0  00000+0 0  9998
2 33460   0.0679 313.1263 0001864  15.0373 272.6554  1.00273125 26344
FENGYUN 2E              
1 33463U 08066A   16054.89689138 -.00000223  00000-0  00000+0 0  9994
2 33463   1.3006  59.5884 0002567 214.1476 289.2357  1.00273287 26324
EXPRESS-AM44            
1 33595U 09007A   16054.80757038 -.00000110  00000-0  00000+0 0  9997
2 33595   0.0257 271.7969 0000467 190.0198 330.9971  1.00271725 25797
NSS-9                   
1 33749U 09008A   16055.42500668  .00000053  00000-0  00000+0 0  9998
2 33749   0.0535 298.8871 0002383  38.9569 151.9290  1.00273190 25805
EUTELSAT HOT BIRD 13D   
1 33750U 09008B   16054.79857325  .00000066  00000-0  00000+0 0  9998
2 33750   0.0677 295.9004 0004922   6.3456 151.3062  1.00271655 25833
TELSTAR 11N             
1 34111U 09009A   16053.10690697 -.00000275  00000-0  00000+0 0  9995
2 34111   0.0184 121.6393 0001856 218.5753 172.1303  1.00274106 25635
EUTELSAT 10A            
1 34710U 09016A   16055.08260207  .00000049  00000-0  00000+0 0  9995
2 34710   0.0669 348.9995 0005661 349.7877 214.3260  1.00274603 25208
SES-7 (PROTOSTAR 2)     
1 34941U 09027A   16054.82023189 -.00000365  00000-0  00000+0 0  9992
2 34941   0.0173 110.8275 0002457 190.3943 255.4647  1.00268351 24853
MEASAT-3A               
1 35362U 09032A   16054.32173169 -.00000264  00000-0  00000+0 0  9993
2 35362   0.0606 241.6757 0001906  47.3403  70.9292  1.00273413 24479
GOES 14                 
1 35491U 09033A   16054.86515666 -.00000111  00000-0  00000+0 0  9999
2 35491   0.0247 134.6264 0004030 102.4434 122.8590  1.00271841 24397
SIRIUS FM-5             
1 35493U 09034A   16055.23707263 -.00000164  00000-0  00000+0 0  9998
2 35493   0.0535 281.1076 0000233 272.7920 308.9668  1.00270961 24216
TERRESTAR-1             
1 35496U 09035A   16054.81759731 -.00000074  00000-0  00000+0 0  9992
2 35496   3.2986 336.2687 0002933   2.7840 357.3768  1.00272898 24394
